CCSDS_OMM_VERS = 2.0
CREATION_DATE  = 
ORIGINATOR     = 

OBJECT_NAME    = STARLINK-36698
OBJECT_ID      = 2026-025S
CENTER_NAME    = EARTH
REF_FRAME      = TEME
TIME_SYSTEM    = UTC
MEAN_ELEMENT_THEORY = SGP/SGP4

EPOCH          = 2026-03-04T12:30:54.385920
MEAN_MOTION    = 15.80857616
ECCENTRICITY   = .00006544
INCLINATION    = 97.2850
RA_OF_ASC_NODE = 174.9518
ARG_OF_PERICENTER = 137.5407
MEAN_ANOMALY   = 222.5912

EPHEMERIS_TYPE = 0
CLASSIFICATION_TYPE = U
NORAD_CAT_ID   = 67709
ELEMENT_SET_NO = 999
REV_AT_EPOCH   = 513
BSTAR          = .13657353E-2
MEAN_MOTION_DOT = .270248E-2
MEAN_MOTION_DDOT = 0

CCSDS_OMM_VERS = 2.0
CREATION_DATE  = 
ORIGINATOR     = 

OBJECT_NAME    = STARLINK-36344
OBJECT_ID      = 2026-025T
CENTER_NAME    = EARTH
REF_FRAME      = TEME
TIME_SYSTEM    = UTC
MEAN_ELEMENT_THEORY = SGP/SGP4

EPOCH          = 2026-03-04T12:00:00.999648
MEAN_MOTION    = 15.75147431
ECCENTRICITY   = .00011882
INCLINATION    = 97.2849
RA_OF_ASC_NODE = 174.8971
ARG_OF_PERICENTER = 90.0393
MEAN_ANOMALY   = 70.4053

EPHEMERIS_TYPE = 0
CLASSIFICATION_TYPE = U
NORAD_CAT_ID   = 67710
ELEMENT_SET_NO = 999
REV_AT_EPOCH   = 518
BSTAR          = -.34532185E-4
MEAN_MOTION_DOT = -.5267E-4
MEAN_MOTION_DDOT = 0

CCSDS_OMM_VERS = 2.0
CREATION_DATE  = 
ORIGINATOR     = 

OBJECT_NAME    = STARLINK-36687
OBJECT_ID      = 2026-025U
CENTER_NAME    = EARTH
REF_FRAME      = TEME
TIME_SYSTEM    = UTC
MEAN_ELEMENT_THEORY = SGP/SGP4

EPOCH          = 2026-03-04T06:29:35.601216
MEAN_MOTION    = 15.80954168
ECCENTRICITY   = .00010796
INCLINATION    = 97.2852
RA_OF_ASC_NODE = 174.6803
ARG_OF_PERICENTER = 86.8013
MEAN_ANOMALY   = 273.3379

EPHEMERIS_TYPE = 0
CLASSIFICATION_TYPE = U
NORAD_CAT_ID   = 67711
ELEMENT_SET_NO = 999
REV_AT_EPOCH   = 510
BSTAR          = .15305428E-2
MEAN_MOTION_DOT = .305453E-2
MEAN_MOTION_DDOT = 0

CCSDS_OMM_VERS = 2.0
CREATION_DATE  = 
ORIGINATOR     = 

OBJECT_NAME    = STARLINK-36705
OBJECT_ID      = 2026-025V
CENTER_NAME    = EARTH
REF_FRAME      = TEME
TIME_SYSTEM    = UTC
MEAN_ELEMENT_THEORY = SGP/SGP4

EPOCH          = 2026-03-04T13:02:26.491488
MEAN_MOTION    = 15.75333169
ECCENTRICITY   = .00009277
INCLINATION    = 97.2867
RA_OF_ASC_NODE = 174.9185
ARG_OF_PERICENTER = 115.3602
MEAN_ANOMALY   = 244.7760

EPHEMERIS_TYPE = 0
CLASSIFICATION_TYPE = U
NORAD_CAT_ID   = 67712
ELEMENT_SET_NO = 999
REV_AT_EPOCH   = 513
BSTAR          = .25599759E-2
MEAN_MOTION_DOT = .402785E-2
MEAN_MOTION_DDOT = 0

CCSDS_OMM_VERS = 2.0
CREATION_DATE  = 
ORIGINATOR     = 

OBJECT_NAME    = STARLINK-36708
OBJECT_ID      = 2026-025W
CENTER_NAME    = EARTH
REF_FRAME      = TEME
TIME_SYSTEM    = UTC
MEAN_ELEMENT_THEORY = SGP/SGP4

EPOCH          = 2026-03-03T05:55:33.590784
MEAN_MOTION    = 15.81043377
ECCENTRICITY   = .00013277
INCLINATION    = 97.2866
RA_OF_ASC_NODE = 173.6220
ARG_OF_PERICENTER = 127.8035
MEAN_ANOMALY   = 232.3354

EPHEMERIS_TYPE = 0
CLASSIFICATION_TYPE = U
NORAD_CAT_ID   = 67713
ELEMENT_SET_NO = 999
REV_AT_EPOCH   = 493
BSTAR          = .2764055E-2
MEAN_MOTION_DOT = .571415E-2
MEAN_MOTION_DDOT = 0

CCSDS_OMM_VERS = 2.0
CREATION_DATE  = 
ORIGINATOR     = 

OBJECT_NAME    = STARLINK-36702
OBJECT_ID      = 2026-025X
CENTER_NAME    = EARTH
REF_FRAME      = TEME
TIME_SYSTEM    = UTC
MEAN_ELEMENT_THEORY = SGP/SGP4

EPOCH          = 2026-03-04T06:16:50.299392
MEAN_MOTION    = 15.80930004
ECCENTRICITY   = .00009654
INCLINATION    = 97.2863
RA_OF_ASC_NODE = 174.6904
ARG_OF_PERICENTER = 104.4437
MEAN_ANOMALY   = 255.6939

EPHEMERIS_TYPE = 0
CLASSIFICATION_TYPE = U
NORAD_CAT_ID   = 67714
ELEMENT_SET_NO = 999
REV_AT_EPOCH   = 509
BSTAR          = .12545947E-2
MEAN_MOTION_DOT = .248433E-2
MEAN_MOTION_DDOT = 0

CCSDS_OMM_VERS = 2.0
CREATION_DATE  = 
ORIGINATOR     = 

OBJECT_NAME    = STARLINK-36718
OBJECT_ID      = 2026-025Y
CENTER_NAME    = EARTH
REF_FRAME      = TEME
TIME_SYSTEM    = UTC
MEAN_ELEMENT_THEORY = SGP/SGP4

EPOCH          = 2026-03-04T06:07:57.674496
MEAN_MOTION    = 15.81170168
ECCENTRICITY   = .00016286
INCLINATION    = 97.2854
RA_OF_ASC_NODE = 174.6993
ARG_OF_PERICENTER = 146.7625
MEAN_ANOMALY   = 213.3746

EPHEMERIS_TYPE = 0
CLASSIFICATION_TYPE = U
NORAD_CAT_ID   = 67715
ELEMENT_SET_NO = 999
REV_AT_EPOCH   = 509
BSTAR          = .40348774E-2
MEAN_MOTION_DOT = .868659E-2
MEAN_MOTION_DDOT = 0

CCSDS_OMM_VERS = 2.0
CREATION_DATE  = 
ORIGINATOR     = 

OBJECT_NAME    = STARLINK-36715
OBJECT_ID      = 2026-025Z
CENTER_NAME    = EARTH
REF_FRAME      = TEME
TIME_SYSTEM    = UTC
MEAN_ELEMENT_THEORY = SGP/SGP4

EPOCH          = 2026-03-04T06:10:55.885728
MEAN_MOTION    = 15.80922147
ECCENTRICITY   = .00015646
INCLINATION    = 97.2853
RA_OF_ASC_NODE = 174.6967
ARG_OF_PERICENTER = 26.9809
MEAN_ANOMALY   = 333.1541

EPHEMERIS_TYPE = 0
CLASSIFICATION_TYPE = U
NORAD_CAT_ID   = 67716
ELEMENT_SET_NO = 999
REV_AT_EPOCH   = 509
BSTAR          = .20509051E-2
MEAN_MOTION_DOT = .413933E-2
MEAN_MOTION_DDOT = 0

CCSDS_OMM_VERS = 2.0
CREATION_DATE  = 
ORIGINATOR     = 

OBJECT_NAME    = STARLINK-36385
OBJECT_ID      = 2026-025AA
CENTER_NAME    = EARTH
REF_FRAME      = TEME
TIME_SYSTEM    = UTC
MEAN_ELEMENT_THEORY = SGP/SGP4

EPOCH          = 2026-03-04T06:19:55.775136
MEAN_MOTION    = 15.80942452
ECCENTRICITY   = .00004654
INCLINATION    = 97.2862
RA_OF_ASC_NODE = 174.6885
ARG_OF_PERICENTER = 75.5576
MEAN_ANOMALY   = 284.5743

EPHEMERIS_TYPE = 0
CLASSIFICATION_TYPE = U
NORAD_CAT_ID   = 67717
ELEMENT_SET_NO = 999
REV_AT_EPOCH   = 509
BSTAR          = .1434707E-2
MEAN_MOTION_DOT = .285513E-2
MEAN_MOTION_DDOT = 0

CCSDS_OMM_VERS = 2.0
CREATION_DATE  = 
ORIGINATOR     = 

OBJECT_NAME    = CZ-2F DEB
OBJECT_ID      = 2026-024E
CENTER_NAME    = EARTH
REF_FRAME      = TEME
TIME_SYSTEM    = UTC
MEAN_ELEMENT_THEORY = SGP/SGP4

EPOCH          = 2026-02-27T12:10:33.167712
MEAN_MOTION    = 15.20915897
ECCENTRICITY   = .02465096
INCLINATION    = 50.3169
RA_OF_ASC_NODE = 68.5830
ARG_OF_PERICENTER = 240.0171
MEAN_ANOMALY   = 117.6115

EPHEMERIS_TYPE = 0
CLASSIFICATION_TYPE = U
NORAD_CAT_ID   = 67718
ELEMENT_SET_NO = 999
REV_AT_EPOCH   = 308
BSTAR          = .35886422E-2
MEAN_MOTION_DOT = .191604E-2
MEAN_MOTION_DDOT = 0

CCSDS_OMM_VERS = 2.0
CREATION_DATE  = 
ORIGINATOR     = 

OBJECT_NAME    = CZ-2F DEB
OBJECT_ID      = 2026-024F
CENTER_NAME    = EARTH
REF_FRAME      = TEME
TIME_SYSTEM    = UTC
MEAN_ELEMENT_THEORY = SGP/SGP4

EPOCH          = 2026-03-04T10:17:07.618560
MEAN_MOTION    = 15.01983894
ECCENTRICITY   = .03166052
INCLINATION    = 49.7925
RA_OF_ASC_NODE = 47.2373
ARG_OF_PERICENTER = 250.3794
MEAN_ANOMALY   = 106.2724

EPHEMERIS_TYPE = 0
CLASSIFICATION_TYPE = U
NORAD_CAT_ID   = 67719
ELEMENT_SET_NO = 999
REV_AT_EPOCH   = 345
BSTAR          = .46990167E-2
MEAN_MOTION_DOT = .195013E-2
MEAN_MOTION_DDOT = 0

CCSDS_OMM_VERS = 2.0
CREATION_DATE  = 
ORIGINATOR     = 

OBJECT_NAME    = CZ-2F DEB
OBJECT_ID      = 2026-024G
CENTER_NAME    = EARTH
REF_FRAME      = TEME
TIME_SYSTEM    = UTC
MEAN_ELEMENT_THEORY = SGP/SGP4

EPOCH          = 2026-03-04T09:45:50.650272
MEAN_MOTION    = 14.99277874
ECCENTRICITY   = .03274402
INCLINATION    = 49.8314
RA_OF_ASC_NODE = 47.8837
ARG_OF_PERICENTER = 246.4592
MEAN_ANOMALY   = 110.1638

EPHEMERIS_TYPE = 0
CLASSIFICATION_TYPE = U
NORAD_CAT_ID   = 67720
ELEMENT_SET_NO = 999
REV_AT_EPOCH   = 376
BSTAR          = .46336437E-2
MEAN_MOTION_DOT = .186952E-2
MEAN_MOTION_DDOT = 0

